address_id;address;address2;district;city_id;postal_code;phone;location;last_update
12;478 Joliet Way;;Hamilton;200;77948;657282285970;[B@1ba9117e;25-09-2014
19;419 Iligan Lane;;Madhya Pradesh;76;72878;990911107354;[B@732c2a62;25-09-2014
23;1417 Lancaster Avenue;;Northern Cape;267;72192;272572357893;[B@272ed83b;25-09-2014
27;1780 Hino Boulevard;;Liepaja;303;7716;902731229323;[B@41fecb8b;25-09-2014
37;127 Purnea (Purnia) Manor;;Piemonte;17;79388;911872220378;[B@120f102b;25-09-2014
48;1998 Halifax Drive;;Lipetsk;308;76022;177727722820;[B@625732;25-09-2014
53;725 Isesaki Place;;Mekka;237;74428;876295323994;[B@51dcb805;25-09-2014
68;1966 Amroha Avenue;;Sichuan;139;70385;333489324603;[B@66498326;25-09-2014
69;698 Otsu Street;;Cayenne;105;71110;409983924481;[B@cad498c;25-09-2014
76;89 Allappuzha (Alleppey) Manor;;National Capital Reg;517;75444;255800440636;[B@1e6454ec;25-09-2014
79;1551 Rampur Lane;;Changhwa;108;72394;251164340471;[B@2accdbb5;25-09-2014
87;929 Tallahassee Loop;;Gauteng;497;74671;800716535041;[B@b62d79;25-09-2014
93;1926 El Alto Avenue;;Buenos Aires;289;75543;846225459260;[B@6631f5ca;25-09-2014
101;1599 Plock Drive;;Tete;534;71986;817248913162;[B@5ace1ed4;25-09-2014
105;733 Mandaluyong Place;;Asir;2;77459;196568435814;[B@1613674b;25-09-2014
109;454 Nakhon Sawan Boulevard;;Funafuti;173;76383;963887147572;[B@27ff5d15;25-09-2014
110;1867 San Juan Bautista Tuxtepec Avenue;;Ivanovo;225;78311;547003310357;[B@4e096385;25-09-2014
115;1378 Alvorada Avenue;;Distrito Federal;102;75834;272234298332;[B@649bec2e;25-09-2014
119;1107 Nakhon Sawan Avenue;;Mxico;365;75149;867546627903;[B@693fe6c9;25-09-2014
121;1967 Sincelejo Place;;Gujarat;176;73644;577812616052;[B@34f5090e;25-09-2014
122;333 Goinia Way;;Texas;185;78625;909029256431;[B@31e5415e;25-09-2014
124;241 Mosul Lane;;Risaralda;147;76157;765345144779;[B@a2431d0;25-09-2014
155;1560 Jelets Boulevard;;Shandong;291;77777;189446090264;[B@1cbb87f3;25-09-2014
158;798 Cianjur Avenue;;Shanxi;590;76990;499408708580;[B@1a4013;25-09-2014
170;710 San Felipe del Progreso Avenue;;Lilongwe;304;76901;843801144113;[B@1b6e1eff;25-09-2014
173;1294 Firozabad Drive;;Jiangxi;407;70618;161801569569;[B@306f16f3;25-09-2014
190;435 0 Way;;West Bengali;195;74750;760171523969;[B@702b8b12;25-09-2014
226;810 Palghat (Palakkad) Boulevard;;Jaroslavl;235;73431;516331171356;[B@22e357dc;25-09-2014
239;98 Stara Zagora Boulevard;;Valle;96;76448;610173756082;[B@49912c99;25-09-2014
251;1473 Changhwa Parkway;;Mxico;124;75933;266798132374;[B@10163d6;25-09-2014
274;920 Kumbakonam Loop;;California;446;75090;685010736240;[B@2dde1bff;25-09-2014
289;1279 Udine Parkway;;Edo & Delta;69;75860;195003555232;[B@15bbf42f;25-09-2014
309;827 Yuncheng Drive;;Callao;99;79047;504434452842;[B@550ee7e5;25-09-2014
314;1224 Huejutla de Reyes Boulevard;;Lombardia;91;70923;806016930576;[B@5f9b2141;25-09-2014
324;1145 Vilnius Manor;;Mxico;451;73170;674805712553;[B@247d8ae;25-09-2014
329;867 Benin City Avenue;;Henan;591;78543;168884817145;[B@48974e45;25-09-2014
347;1293 Nam Dinh Way;;Roraima;84;71583;697656479977;[B@6a84a97d;25-09-2014
361;45 Aparecida de Goinia Place;;Madhya Pradesh;464;7431;650496654258;[B@6c130c45;25-09-2014
369;817 Laredo Avenue;;Jalisco;188;77449;151249681135;[B@50ad3bc1;25-09-2014
377;154 Oshawa Manor;;East Java;415;72771;440365973660;[B@223aa2f7;25-09-2014
385;1642 Charlotte Amalie Drive;;Slaskie;549;75442;821476736117;[B@6d3a388c;25-09-2014
401;168 Cianjur Manor;;Saitama;228;73824;679095087143;[B@193f604a;25-09-2014
408;990 Etawah Loop;;Tamil Nadu;564;79940;206169448769;[B@20f5239f;25-09-2014
409;1266 Laredo Parkway;;Saitama;380;7664;1483365694;[B@57af006c;25-09-2014
414;1936 Lapu-Lapu Parkway;;Bauchi & Gombe;141;7122;653436985797;[B@6bedbc4d;25-09-2014
416;1445 Carmen Parkway;;West Java;117;70809;598912394463;[B@932bc4a;25-09-2014
422;289 Santo Andr Manor;;al-Sharqiya;16;72410;214976066017;[B@d29f28;25-09-2014
428;1727 Matamoros Place;;Sawhaj;465;78813;129673677866;[B@2fd1433e;25-09-2014
431;1596 Acua Parkway;;Jharkhand;418;70425;157133457169;[B@29d89d5d;25-09-2014
436;287 Cuautla Boulevard;;Chuquisaca;501;72736;82619513349;[B@3514a4c0;25-09-2014
450;203 Tambaram Street;;Buenos Aires;161;73942;411549550611;[B@212b5695;25-09-2014
461;1889 Valparai Way;;Ziguinchor;600;75559;670370974122;[B@446293d;25-09-2014
465;734 Tanshui Avenue;;Caquet;170;70664;366776723320;[B@69997e9d;25-09-2014
469;1872 Toulon Loop;;OHiggins;428;7939;928809465153;[B@793be5ca;25-09-2014
483;632 Usolje-Sibirskoje Parkway;;Ha Darom;36;73085;667648979883;[B@2df9b86;25-09-2014
487;1785 So Bernardo do Campo Street;;Veracruz;125;71182;684529463244;[B@37654521;25-09-2014
501;1060 Tandil Lane;;Shandong;432;72349;211256301880;[B@15aab8c6;25-09-2014
513;758 Korolev Parkway;;Andhra Pradesh;568;75474;441628280920;[B@33990a0c;25-09-2014
538;1817 Livorno Way;;Khanh Hoa;100;79401;478380208348;[B@4de4b452;25-09-2014
543;43 Vilnius Manor;;Colorado;42;79814;484500282381;[B@50b5ac82;25-09-2014
547;379 Lublin Parkway;;Toscana;309;74568;921960450089;[B@101952da;25-09-2014
555;1764 Jalib al-Shuyukh Parkway;;Galicia;459;77642;84794532510;[B@6babf3bf;25-09-2014
567;1894 Boa Vista Way;;Texas;178;77464;239357986667;[B@3059cbc;25-09-2014
575;1052 Pathankot Avenue;;Sichuan;299;77397;128499386727;[B@7ea9e1e2;25-09-2014
585;1208 Tama Loop;;Ninawa;344;73605;954786054144;[B@24fcf36f;25-09-2014
593;1402 Zanzibar Boulevard;;Guanajuato;106;71102;387448063440;[B@10feca44;25-09-2014
