address_id;address;address2;district;city_id;postal_code;phone;location;last_update
11;900 Santiago de Compostela Parkway;;Central Serbia;280;93896;716571220373;[B@6283d8b8;25-09-2014
28;96 Tafuna Way;;Crdoba;128;99865;934730187245;[B@3b6ddd1d;25-09-2014
29;934 San Felipe de Puerto Plata Street;;Sind;472;99780;196495945706;[B@3f6b0be5;25-09-2014
38;61 Tama Street;;Okayama;284;94065;708403338270;[B@611889f4;25-09-2014
44;671 Graz Street;;Oriental;353;94399;680768868518;[B@1da2cb77;25-09-2014
63;1213 Ranchi Parkway;;Karnataka;350;94352;800024380485;[B@48f278eb;25-09-2014
70;1150 Kimchon Manor;;Skne ln;321;96109;663449333709;[B@2f217633;25-09-2014
80;602 Paarl Street;;Pavlodar;402;98889;896314772871;[B@a530d0a;25-09-2014
81;1692 Ede Loop;;So Paulo;30;9223;918711376618;[B@1a18644;25-09-2014
82;936 Salzburg Lane;;Uttar Pradesh;425;96709;875756771675;[B@5acf93bb;25-09-2014
86;927 Baha Blanca Parkway;;Krim;479;9495;821972242086;[B@7e7be63f;25-09-2014
102;669 Firozabad Loop;;Abu Dhabi;12;92265;412903167998;[B@6cd28fa7;25-09-2014
104;1913 Kamakura Place;;Lipetsk;238;97287;942570536750;[B@614ca7df;25-09-2014
111;1532 Dzerzinsk Way;;Buenos Aires;334;9599;330838016880;[B@4738a206;25-09-2014
112;1002 Ahmadnagar Manor;;Mxico;213;93026;371490777743;[B@66d3eec0;25-09-2014
123;1987 Coacalco de Berriozbal Loop;;al-Qalyubiya;476;96065;787654415858;[B@1e04fa0a;25-09-2014
145;928 Jaffna Loop;;Hiroshima;172;93762;581852137991;[B@1af2d44a;25-09-2014
147;374 Bat Yam Boulevard;;Kilis;266;97700;923261616249;[B@18d87d80;25-09-2014
150;879 Newcastle Way;;Michigan;499;90732;206841104594;[B@618425b5;25-09-2014
151;1337 Lincoln Parkway;;Saitama;555;99457;597815221267;[B@58695725;25-09-2014
152;1952 Pune Lane;;Saint-Denis;442;92150;354615066969;[B@543588e6;25-09-2014
154;781 Shimonoseki Drive;;Michoacn de Ocampo;202;95444;632316273199;[B@f5acb9d;25-09-2014
196;9 San Miguel de Tucumn Manor;;Uttar Pradesh;169;90845;956188728558;[B@4fb3ee4e;25-09-2014
203;1149 A Corua (La Corua) Boulevard;;Haiphong;194;95824;470884141195;[B@5d7148e2;25-09-2014
214;751 Lima Loop;;Aden;7;99405;756460337785;[B@25fb8912;25-09-2014
219;1229 Valencia Parkway;;Haskovo;498;99124;352679173732;[B@7c24b813;25-09-2014
224;1842 Luzinia Boulevard;;Zanzibar West;593;94420;706878974831;[B@2c35e847;25-09-2014
233;356 Olomouc Manor;;Gois;26;93323;22326410776;[B@7bd4937b;25-09-2014
237;1736 Cavite Place;;Qina;216;98775;431770603551;[B@21e360a;25-09-2014
238;346 Skikda Parkway;;Hawalli;233;90628;630424482919;[B@5ba3f27a;25-09-2014
254;786 Stara Zagora Way;;Oyo & Osun;390;98332;716256596301;[B@58d75e99;25-09-2014
265;1158 Mandi Bahauddin Parkway;;Shanxi;136;98484;276555730211;[B@74751b3;25-09-2014
267;816 Cayenne Parkway;;Manab;414;93629;282874611748;[B@741a8937;25-09-2014
284;600 Bradford Street;;East Azerbaidzan;514;96204;117592274996;[B@306e95ec;25-09-2014
301;951 Stara Zagora Manor;;Punjab;400;98573;429925609431;[B@52af26ee;25-09-2014
313;1191 Sungai Petani Boulevard;;Missouri;262;9668;983259819766;[B@6fd83fc1;25-09-2014
316;746 Joliet Lane;;Kursk;286;94878;688485191923;[B@4f2b503c;25-09-2014
318;1774 Yaound Place;;Hubei;166;91400;613124286867;[B@bae7dc0;25-09-2014
326;470 Boksburg Street;;Central;81;97960;908029859266;[B@209da20d;25-09-2014
335;587 Benguela Manor;;Illinois;42;91590;165450987037;[B@e15b7e8;25-09-2014
362;482 Kowloon and New Kowloon Manor;;Bratislava;90;97056;738968474939;[B@1b2abca6;25-09-2014
364;1623 Kingstown Drive;;Buenos Aires;20;91299;296394569728;[B@6392827e;25-09-2014
368;1658 Jastrzebie-Zdrj Loop;;Central;372;96584;568367775448;[B@2ed2d9cb;25-09-2014
374;433 Florencia Street;;Chihuahua;250;91330;561729882725;[B@d5b810e;25-09-2014
383;686 Donostia-San Sebastin Lane;;Guangdong;471;97390;71857599858;[B@43dac38f;25-09-2014
389;500 Lincoln Parkway;;Jiangsu;210;95509;550306965159;[B@342c38f8;25-09-2014
399;331 Bydgoszcz Parkway;;Asturia;181;966;537374465982;[B@c88a337;25-09-2014
412;1639 Saarbrcken Drive;;North West;437;9827;328494873422;[B@5d0a1059;25-09-2014
421;966 Arecibo Loop;;Sind;134;94018;15273765306;[B@485966cc;25-09-2014
440;722 Bradford Lane;;Shandong;249;90920;746251338300;[B@1de76cc7;25-09-2014
453;319 Springs Loop;;Baijeri;160;99552;72524459905;[B@54bff557;25-09-2014
471;1322 Mosul Parkway;;Shandong;145;95400;268053970382;[B@593aaf41;25-09-2014
474;1469 Plock Lane;;Galicia;388;95835;622884741180;[B@5a56cdac;25-09-2014
476;270 Tambaram Parkway;;Gauteng;244;9668;248446668735;[B@7c711375;25-09-2014
493;184 Mandaluyong Street;;Baja California Sur;288;94239;488425406814;[B@57cf54e1;25-09-2014
497;1013 Tabuk Boulevard;;West Bengali;261;96203;158399646978;[B@5b03b9fe;25-09-2014
500;362 Rajkot Lane;;Gansu;47;98030;962020153680;[B@37d4349f;25-09-2014
508;496 Celaya Drive;;Nagano;552;90797;759586584889;[B@434a63ab;25-09-2014
521;568 Dhule (Dhulia) Loop;;Coquimbo;127;92568;602101369463;[B@6e0f5f7f;25-09-2014
526;617 Klerksdorp Place;;Khanh Hoa;366;94707;574973479129;[B@2805d709;25-09-2014
531;1986 Sivas Place;;Friuli-Venezia Giuli;551;95775;182059202712;[B@3ee37e5a;25-09-2014
542;193 Bhusawal Place;;Kang-won;539;9750;745267607502;[B@2ea41516;25-09-2014
564;505 Madiun Boulevard;;Dolnoslaskie;577;97271;970638808606;[B@3a44431a;25-09-2014
568;1342 Sharja Way;;Sokoto & Kebbi & Zam;488;93655;946114054231;[B@3c7f66c4;25-09-2014
577;1501 Pangkal Pinang Avenue;;Mazowieckie;409;943;770864062795;[B@194bcebf;25-09-2014
579;521 San Juan Bautista Tuxtepec Place;;Qaraghandy;598;95093;844018348565;[B@17497425;25-09-2014
583;1489 Kakamigahara Lane;;Taipei;526;98883;29341849811;[B@f0da945;25-09-2014
586;951 Springs Lane;;Central Mindanao;219;96115;165164761435;[B@4803b726;25-09-2014
592;1923 Stara Zagora Lane;;Nantou;546;95179;182178609211;[B@ffaa6af;25-09-2014
602;1101 Bucuresti Boulevard;;West Greece;401;97661;199514580428;[B@53ce1329;25-09-2014
