address_id;address;address2;district;city_id;postal_code;phone;location;last_update
7;692 Joliet Street;;Attika;38;83579;448477190408;[B@7a419da4;25-09-2014
21;270 Toulon Boulevard;;Kalmykia;156;81766;407752414682;[B@14555e0a;25-09-2014
54;115 Hidalgo Parkway;;Khartum;379;80168;307703950263;[B@4bb33f74;25-09-2014
65;915 Ponce Place;;Basel-Stadt;56;83980;1395251317;[B@759d26fb;25-09-2014
66;1717 Guadalajara Lane;;Missouri;441;85505;914090181665;[B@3c73951;25-09-2014
89;1557 Ktahya Boulevard;;England;88;88002;720998247660;[B@3d5c822d;25-09-2014
90;870 Ashqelon Loop;;Songkhla;489;84931;135117278909;[B@6f46426d;25-09-2014
92;1942 Ciparay Parkway;;Cheju;113;82624;978987363654;[B@73700b80;25-09-2014
108;1386 Yangor Avenue;;Provence-Alpes-Cte;543;80720;449216226468;[B@49c7b90e;25-09-2014
116;793 Cam Ranh Avenue;;California;292;87057;824370924746;[B@10d307f1;25-09-2014
131;801 Hagonoy Drive;;Smolensk;484;8439;237426099212;[B@4d5b6aac;25-09-2014
134;758 Junan Lane;;Gois;190;82639;935448624185;[B@3e84448c;25-09-2014
137;261 Saint Louis Way;;Coahuila de Zaragoza;541;83401;321944036800;[B@4a7f959b;25-09-2014
140;788 Atinsk Street;;Karnataka;211;81691;146497509724;[B@429bffaa;25-09-2014
142;1587 Sullana Lane;;Inner Mongolia;207;85769;468060467018;[B@5403f35f;25-09-2014
163;1440 Compton Place;;North Austria;307;81037;931059836497;[B@483f6d77;25-09-2014
164;1623 Baha Blanca Manor;;Moskova;310;81511;149981248346;[B@7e5afaa6;25-09-2014
180;757 Rustenburg Avenue;;Skikda;483;89668;506134035434;[B@63a12c68;25-09-2014
186;533 al-Ayn Boulevard;;California;126;8862;662227486184;[B@28f3b248;25-09-2014
201;817 Bradford Loop;;Jiangsu;109;89459;264286442804;[B@1b1426f4;25-09-2014
204;387 Mwene-Ditu Drive;;Ahal;35;8073;764477681869;[B@32b260fa;25-09-2014
209;1679 Antofagasta Street;;Alto Paran;122;86599;905903574913;[B@581ac8a8;25-09-2014
212;624 Oshawa Boulevard;;West Bengali;51;89959;49677664184;[B@6d4e5011;25-09-2014
215;1333 Haldia Street;;Jilin;174;82161;408304391718;[B@57d7f8ca;25-09-2014
227;1820 Maring Parkway;;Punjab;324;88307;99760893676;[B@76c3e77a;25-09-2014
228;60 Poos de Caldas Street;;Rajasthan;243;82338;963063788669;[B@78123e82;25-09-2014
232;754 Valencia Place;;Phnom Penh;406;87911;594319417514;[B@67c33749;25-09-2014
245;1103 Bilbays Parkway;;Hubei;578;87660;279979529227;[B@fba92d3;25-09-2014
249;300 Junan Street;;Kyonggi;553;81314;890289150158;[B@662b4c69;25-09-2014
262;771 Yaound Manor;;Sofala;64;86768;245477603573;[B@fa49800;25-09-2014
275;906 Goinia Way;;Wielkopolskie;255;83565;701767622697;[B@71238fc2;25-09-2014
279;1884 Shikarpur Avenue;;Haryana;263;85548;959949395183;[B@2a54a73f;25-09-2014
280;1980 Kamjanets-Podilskyi Street;;Illinois;404;89502;874337098891;[B@16a0ee18;25-09-2014
287;1405 Chisinau Place;;Ponce;411;8160;62781725285;[B@3d6f0054;25-09-2014
300;661 Chisinau Lane;;Pietari;274;8856;816436065431;[B@505fc5a4;25-09-2014
311;715 So Bernardo do Campo Lane;;Kedah;507;84804;181179321332;[B@5fbdfdcf;25-09-2014
312;1354 Siegen Street;;Rio de Janeiro;25;80184;573441801529;[B@4efc180e;25-09-2014
327;1427 A Corua (La Corua) Place;;Buenos Aires;45;85799;972574862516;[B@bd4dc25;25-09-2014
330;981 Kumbakonam Place;;Distrito Federal;89;87611;829116184079;[B@25084a1e;25-09-2014
345;68 Ponce Parkway;;Hanoi;201;85926;870635127812;[B@156b88f5;25-09-2014
353;381 Kabul Way;;Taipei;209;87272;55477302294;[B@3bf9ce3e;25-09-2014
360;619 Hunuco Avenue;;Shimane;331;81508;142596392389;[B@16610890;25-09-2014
384;97 Mogiljov Lane;;Gujarat;73;89294;924815207181;[B@71def8f8;25-09-2014
396;767 Pyongyang Drive;;Osaka;229;83536;667736124769;[B@383bfa16;25-09-2014
398;954 Lapu-Lapu Way;;Moskova;278;8816;737229003916;[B@4d465b11;25-09-2014
410;88 Nagaon Manor;;Buenos Aires;524;86868;779461480495;[B@53fdffa1;25-09-2014
425;1866 al-Qatif Avenue;;California;155;89420;546793516940;[B@5562c41e;25-09-2014
430;355 Vitria de Santo Anto Way;;Oaxaca;452;81758;548003849552;[B@32ee6fee;25-09-2014
434;1404 Taguig Drive;;Okayama;547;87212;572068624538;[B@4d0f2471;25-09-2014
449;1289 Belm Boulevard;;Tartumaa;530;88306;237368926031;[B@7133da86;25-09-2014
462;1485 Bratislava Place;;Illinois;435;83183;924663855568;[B@3232a28a;25-09-2014
468;1844 Usak Avenue;;Nova Scotia;196;84461;164414772677;[B@73e22a3d;25-09-2014
470;1088 Ibirit Place;;Jalisco;595;88502;49084281333;[B@47faa49c;25-09-2014
484;98 Pyongyang Boulevard;;Ohio;11;88749;191958435142;[B@28f2a10f;25-09-2014
490;1909 Dayton Avenue;;Guangdong;469;88513;702955450528;[B@f736069;25-09-2014
491;1789 Saint-Denis Parkway;;Coahuila de Zaragoza;4;8268;936806643983;[B@6da21078;25-09-2014
504;1 Valle de Santiago Avenue;;Apulia;93;86208;465897838272;[B@7fee8714;25-09-2014
507;1197 Sokoto Boulevard;;West Bengali;478;87687;868602816371;[B@4229bb3f;25-09-2014
528;1176 Southend-on-Sea Manor;;Southern Tagalog;458;81651;236679267178;[B@56cdfb3b;25-09-2014
536;166 Jinchang Street;;Buenos Aires;165;86760;717566026669;[B@2b91004a;25-09-2014
537;958 Sagamihara Lane;;Mie;287;88408;427274926505;[B@20ccf40b;25-09-2014
554;947 Trshavn Place;;Central Luzon;528;841;50898428626;[B@2fb3536e;25-09-2014
578;1405 Hagonoy Avenue;;Slaskie;133;86587;867287719310;[B@169e6180;25-09-2014
581;186 Skikda Lane;;Morelos;131;89422;14465669789;[B@35aea049;25-09-2014
600;1837 Kaduna Parkway;;Inner Mongolia;241;82580;640843562301;[B@7205765b;25-09-2014
