address_id;address;address2;district;city_id;postal_code;phone;location;last_update
32;1425 Shikarpur Manor;;Bihar;346;65599;678220867005;[B@5fa07e12;25-09-2014
33;786 Aurora Avenue;;Yamaguchi;474;65750;18461860151;[B@55b53d44;25-09-2014
36;176 Mandaluyong Place;;Uttar Pradesh;239;65213;627705991774;[B@482bce4f;25-09-2014
46;1632 Bislig Avenue;;Nonthaburi;394;61117;471675840679;[B@366647c2;25-09-2014
52;909 Garland Manor;;Tatarstan;367;69367;705800322606;[B@6a6afff2;25-09-2014
62;1114 Liepaja Street;;Sarawak;282;69226;212869228936;[B@1649b0e6;25-09-2014
67;1214 Hanoi Way;;Nebraska;306;67055;491001136577;[B@865dd6;25-09-2014
74;1124 Buenaventura Drive;;Mekka;13;6856;407733804223;[B@4da4253;25-09-2014
77;1947 Poos de Caldas Boulevard;;Chiayi;114;60951;427454485876;[B@3972a855;25-09-2014
88;125 Citt del Vaticano Boulevard;;Puebla;40;67912;48417642933;[B@62e7f11d;25-09-2014
114;804 Elista Drive;;Hubei;159;61069;379804592943;[B@503d687a;25-09-2014
120;544 Malm Parkway;;Central Java;403;63502;386759646229;[B@6a370f4;25-09-2014
126;1175 Tanauan Way;;Lima;305;64615;937222955822;[B@2abf4075;25-09-2014
127;117 Boa Vista Way;;Uttar Pradesh;566;6804;677976133614;[B@770d3326;25-09-2014
129;569 Baicheng Lane;;Gauteng;85;60304;490211944645;[B@4cc8eb05;25-09-2014
130;1666 Qomsheh Drive;;So Paulo;410;66255;582835362905;[B@51f116b8;25-09-2014
146;483 Ljubertsy Parkway;;Scotland;149;60562;581174211853;[B@19d481b;25-09-2014
156;1963 Moscow Place;;Assam;354;64863;761379480249;[B@1f97cf0d;25-09-2014
162;369 Papeete Way;;North Carolina;187;66639;170117068815;[B@140c9f39;25-09-2014
169;154 Tallahassee Loop;;Xinxiang;199;62250;935508855935;[B@4d910fd6;25-09-2014
171;1540 Wroclaw Drive;;Maharashtra;107;62686;182363341674;[B@26275bef;25-09-2014
174;1877 Ezhou Lane;;Rajasthan;550;63337;264541743403;[B@7690781;25-09-2014
177;1010 Klerksdorp Way;;Steiermark;186;6802;493008546874;[B@77eca502;25-09-2014
185;682 Garden Grove Place;;Tennessee;333;67497;72136330362;[B@3246fb96;25-09-2014
189;927 Barcelona Street;;Chaharmahal va Bakht;467;65121;951486492670;[B@2e222612;25-09-2014
195;1077 San Felipe de Puerto Plata Place;;Rostov-na-Donu;369;65387;812824036424;[B@61386958;25-09-2014
207;1688 Nador Lane;;Sulawesi Utara;184;61613;652218196731;[B@73ee04c8;25-09-2014
217;1001 Miyakonojo Lane;;Taizz;518;67924;584316724815;[B@7671cb68;25-09-2014
229;1014 Loja Manor;;Tamil Nadu;22;66851;460795526514;[B@49dc7102;25-09-2014
230;201 Effon-Alaiye Way;;Asuncin;37;64344;684192903087;[B@6b8ca3c8;25-09-2014
250;829 Grand Prairie Way;;Paran;328;6461;741070712873;[B@68c72235;25-09-2014
261;51 Laredo Avenue;;Sagaing;342;68146;884536620568;[B@10959ece;25-09-2014
263;532 Toulon Street;;Santiago;460;69517;46871694740;[B@3a6bb9bf;25-09-2014
292;1993 Tabuk Lane;;Tamil Nadu;522;64221;648482415405;[B@34f7cfd9;25-09-2014
296;1936 Cuman Avenue;;Virginia;433;61195;976798660411;[B@65f095f8;25-09-2014
298;44 Najafabad Way;;Baskimaa;146;61391;96604821070;[B@59af0466;25-09-2014
306;1883 Maikop Lane;;Kaliningrad;254;68469;96110042435;[B@3e6ef8ad;25-09-2014
320;1542 Lubumbashi Boulevard;;Tel Aviv;57;62472;508800331065;[B@346d61be;25-09-2014
334;1816 Bydgoszcz Loop;;Dhaka;234;64308;965273813662;[B@55536d9e;25-09-2014
350;1628 Nagareyama Lane;;Central;453;60079;20064292617;[B@747edf66;25-09-2014
365;1009 Zanzibar Lane;;Arecibo;32;64875;102396298916;[B@3d1cfad4;25-09-2014
366;114 Jalib al-Shuyukh Manor;;Centre;585;60440;845378657301;[B@62230c58;25-09-2014
367;1163 London Parkway;;Par;66;6066;675120358494;[B@2cd2a21f;25-09-2014
375;1049 Matamoros Parkway;;Karnataka;191;69640;960505250340;[B@2e55dd0c;25-09-2014
378;1191 Tandil Drive;;Southern Tagalog;523;6362;45554316010;[B@74455848;25-09-2014
392;514 Ife Way;;Shaba;315;69973;900235712074;[B@e7edb54;25-09-2014
407;1346 Mysore Drive;;Bretagne;92;61507;516647474029;[B@378542de;25-09-2014
415;432 Garden Grove Street;;Ontario;430;65630;615964523510;[B@3738449f;25-09-2014
424;1948 Bayugan Parkway;;Bihar;264;60622;987306329957;[B@69e1dd28;25-09-2014
432;259 Ipoh Drive;;So Paulo;189;64964;419009857119;[B@11bd0f3b;25-09-2014
437;1766 Almirante Brown Street;;KwaZulu-Natal;364;63104;617567598243;[B@c333c60;25-09-2014
438;596 Huixquilucan Place;;Nampula;351;65892;342709348083;[B@79da8dc5;25-09-2014
463;935 Aden Boulevard;;Central Java;532;64709;335052544020;[B@1eb5174b;25-09-2014
477;1786 Salinas Place;;Nam Ha;359;66546;206060652238;[B@67080771;25-09-2014
478;1078 Stara Zagora Drive;;Aceh;301;69221;932992626595;[B@72cde7cc;25-09-2014
499;1954 Kowloon and New Kowloon Way;;Chimborazo;434;63667;898559280434;[B@5fd4f8f5;25-09-2014
505;519 Brescia Parkway;;East Java;318;69504;793996678771;[B@696da30b;25-09-2014
519;962 Tama Loop;;;583;65952;282667506728;[B@4e7912d8;25-09-2014
525;1949 Sanya Street;;Gumma;224;61244;132100972047;[B@53976f5c;25-09-2014
540;949 Allende Lane;;Uttar Pradesh;24;67521;122981120653;[B@2bfc268b;25-09-2014
544;183 Haiphong Street;;Jilin;46;69953;488600270038;[B@2f8dad04;25-09-2014
561;1497 Fengshan Drive;;KwaZulu-Natal;112;63022;368738360376;[B@29e495ff;25-09-2014
587;760 Miyakonojo Drive;;Guerrero;246;64682;294449058179;[B@41e1e210;25-09-2014
588;966 Asuncin Way;;Hidalgo;212;62703;995527378381;[B@be35cd9;25-09-2014
604;1331 Usak Boulevard;;Vaud;296;61960;145308717464;[B@4944252c;25-09-2014
