address_id;address;address2;district;city_id;postal_code;phone;location;last_update
8;1566 Inegl Manor1566 Inegl Manor1566 Inegl Manor1566 Inegl Manor1566 Inegl Manor;;Mandalay;349;53561;705814003527;[B@65b3f4a4;25-09-2014
14;1531 Sal Drive;;Esfahan;162;53628;648856936185;[B@f2ff811;25-09-2014
20;360 Toulouse Parkway;;England;495;54308;949312333307;[B@568ff82;25-09-2014
30;18 Duisburg Boulevard;;;121;58327;998009777982;[B@50caa560;25-09-2014
34;1668 Anpolis Street;;Taipei;316;50199;525255540978;[B@2a266d09;25-09-2014
51;686 Garland Manor;;Cear;247;52535;69493378813;[B@5ab9e72c;25-09-2014
59;1697 Kowloon and New Kowloon Loop;;Moskova;49;57807;499352017190;[B@186f8716;25-09-2014
64;81 Hodeida Way;;Rajasthan;231;55561;250767749542;[B@1d8bd0de;25-09-2014
71;1586 Guaruj Place;;Hunan;579;5135;947233365992;[B@45ca843;25-09-2014
73;1031 Daugavpils Parkway;;Bchar;63;59025;107137400143;[B@11c9af63;25-09-2014
75;492 Cam Ranh Street;;Eastern Visayas;61;50805;565018274456;[B@757acd7b;25-09-2014
95;1370 Le Mans Avenue;;Brunei and Muara;53;52163;345679835036;[B@36b4fe2a;25-09-2014
98;152 Kitwe Parkway;;Caraga;82;53182;835433605312;[B@574b560f;25-09-2014
103;588 Vila Velha Manor;;Kyongsangbuk;268;51540;333339908719;[B@ba54932;25-09-2014
125;211 Chiayi Drive;;Uttar Pradesh;164;58186;665993880048;[B@28975c28;25-09-2014
139;943 Johannesburg Avenue;;Maharashtra;417;5892;90921003005;[B@3943a2be;25-09-2014
143;1029 Dzerzinsk Manor;;Ynlin;542;57519;33173584456;[B@343570b7;25-09-2014
161;1386 Nakhon Sawan Boulevard;;Pyongyang-si;420;53502;368899174225;[B@157853da;25-09-2014
167;1287 Xiangfan Boulevard;;Gifu;253;57844;819416131190;[B@71c3b41;25-09-2014
172;475 Atinsk Way;;Gansu;240;59571;201705577290;[B@236e3f4e;25-09-2014
175;316 Uruapan Street;;Perak;223;58194;275788967899;[B@3cc1435c;25-09-2014
181;146 Johannesburg Way;;Tamaulipas;330;54132;953689007081;[B@6bf0219d;25-09-2014
187;1839 Szkesfehrvr Parkway;;Gois;317;55709;947468818183;[B@dd0c991;25-09-2014
192;1166 Changhwa Street;;Caraga;62;58852;650752094490;[B@5f16132a;25-09-2014
193;891 Novi Sad Manor;;Ontario;383;5379;247646995453;[B@69fb6037;25-09-2014
234;1256 Bislig Boulevard;;Botosani;86;50598;479007229460;[B@36d585c;25-09-2014
252;1309 Weifang Street;;Florida;520;57338;435785045362;[B@87a85e1;25-09-2014
264;1027 Banjul Place;;West Bengali;197;50390;538241037443;[B@671a5887;25-09-2014
268;1831 Nam Dinh Loop;;National Capital Reg;323;51990;322888976727;[B@5552768b;25-09-2014
271;1587 Loja Manor;;Salzburg;447;5410;621625204422;[B@3c947bc5;25-09-2014
272;1762 Paarl Parkway;;Hunan;298;53928;192459639410;[B@609db43b;25-09-2014
282;556 Baybay Manor;;Oyo & Osun;374;55802;363982224739;[B@55f616cf;25-09-2014
283;457 Tongliao Loop;;Bursa;222;56254;880756161823;[B@1356d4d4;25-09-2014
288;226 Halifax Street;;Xinxiang;277;58492;790651020929;[B@c03cf28;25-09-2014
294;1912 Allende Manor;;Kowloon and New Kowl;279;58124;172262454487;[B@1329eff;25-09-2014
295;544 Tarsus Boulevard;;Gurico;562;53145;892523334;[B@6497b078;25-09-2014
304;1635 Kuwana Boulevard;;Hiroshima;205;52137;710603868323;[B@41c2284a;25-09-2014
305;41 El Alto Parkway;;Maharashtra;398;56883;51917807050;[B@53aad5d5;25-09-2014
307;1908 Gaziantep Place;;Liaoning;536;58979;108053751300;[B@46fa7c39;25-09-2014
308;687 Alessandria Parkway;;Sanaa;455;57587;407218522294;[B@1fb700ee;25-09-2014
315;543 Bergamo Avenue;;Minas Gerais;215;59686;103602195112;[B@4f67eb2a;25-09-2014
319;1957 Yantai Lane;;So Paulo;490;59255;704948322302;[B@4a668b6e;25-09-2014
321;651 Pathankot Loop;;Maharashtra;336;59811;139378397418;[B@5f683daf;25-09-2014
328;479 San Felipe del Progreso Avenue;;Morelos;130;54949;869051782691;[B@78ffe6dc;25-09-2014
333;1860 Taguig Loop;;West Java;119;59550;38158430589;[B@8317c52;25-09-2014
338;431 Szkesfehrvr Avenue;;Baki;48;57828;119501405123;[B@76f2bbc1;25-09-2014
342;124 al-Manama Way;;Hiroshima;382;52368;647899404952;[B@68e965f5;25-09-2014
346;1217 Konotop Avenue;;Gelderland;151;504;718917251754;[B@6f27a732;25-09-2014
351;1157 Nyeri Loop;;Adygea;320;56380;262744791493;[B@6c779568;25-09-2014
355;469 Nakhon Sawan Street;;Tuvassia;531;58866;689199636560;[B@f381794;25-09-2014
363;604 Bern Place;;Jharkhand;429;5373;620719383725;[B@2cdd0d4b;25-09-2014
376;1061 Ede Avenue;;Southern Tagalog;98;57810;333390595558;[B@7e9131d5;25-09-2014
400;1152 Citrus Heights Manor;;al-Qadarif;15;5239;765957414528;[B@2e1d27ba;25-09-2014
411;264 Bhimavaram Manor;;St Thomas;111;54749;302526949177;[B@61d6015a;25-09-2014
418;126 Acua Parkway;;West Bengali;71;58888;480039662421;[B@2525ff7e;25-09-2014
419;397 Sunnyvale Avenue;;Guanajuato;19;55566;680851640676;[B@524d6d96;25-09-2014
423;437 Chungho Drive;;Puerto Plata;450;59489;491271355190;[B@152aa092;25-09-2014
443;1836 Korla Parkway;;Copperbelt;272;55405;689681677428;[B@44a7bfbc;25-09-2014
444;231 Kaliningrad Place;;Lombardia;70;57833;575081026569;[B@4ef37659;25-09-2014
446;1924 Shimonoseki Drive;;Batna;59;52625;406784385440;[B@776b83cc;25-09-2014
452;207 Cuernavaca Loop;;Tatarstan;352;52671;782900030287;[B@37858383;25-09-2014
502;1515 Korla Way;;England;589;57197;959467760895;[B@4e268090;25-09-2014
503;1416 San Juan Bautista Tuxtepec Avenue;;Zufar;444;50592;144206758053;[B@1bb266b3;25-09-2014
512;1269 Ipoh Avenue;;Eskisehir;163;54674;402630109080;[B@306cf3ea;25-09-2014
514;1747 Rustenburg Place;;Bihar;110;51369;442673923363;[B@2beee7ff;25-09-2014
548;1658 Cuman Loop;;Sumatera Selatan;396;51309;784907335610;[B@5136d012;25-09-2014
550;1715 Okayama Street;;So Paulo;485;55676;169352919175;[B@5939a379;25-09-2014
552;390 Wroclaw Way;;Hainan;462;5753;357593328658;[B@e1de817;25-09-2014
558;904 Clarksville Drive;;Zhejiang;193;52234;955349440539;[B@52102734;25-09-2014
562;869 Shikarpur Way;;England;496;57380;590764256785;[B@3541cb24;25-09-2014
572;539 Hami Way;;Tokat;538;52196;525518075499;[B@2177849e;25-09-2014
584;1819 Alessandria Loop;;Campeche;103;53829;377633994405;[B@40cb8df7;25-09-2014
590;247 Jining Parkway;;Banjul;54;53446;170115379190;[B@13b13b5d;25-09-2014
603;1103 Quilmes Boulevard;;Piura;503;52137;644021380889;[B@2892dae4;25-09-2014
