address_id;address;address2;district;city_id;postal_code;phone;location;last_update
17;270 Amroha Parkway;;Osmaniye;384;29610;695479687538;[B@489115ef;25-09-2014
24;1688 Okara Way;;Nothwest Border Prov;327;21954;144453869132;[B@3857f613;25-09-2014
50;46 Pjatigorsk Lane;;Moscow (City);343;23616;262076994845;[B@198b6731;25-09-2014
78;1206 Dos Quebradas Place;;So Paulo;431;20207;241832790687;[B@7c6908d7;25-09-2014
84;1888 Kabul Drive;;Oyo & Osun;217;20936;701457319790;[B@3c9754d8;25-09-2014
91;1740 Portoviejo Avenue;;Sucre;480;29932;198123170793;[B@3bf7ca37;25-09-2014
94;1952 Chatsworth Drive;;Guangdong;332;25958;991562402283;[B@79079097;25-09-2014
99;1697 Tanauan Lane;;Punjab;399;22870;4764773857;[B@4d1c00d0;25-09-2014
118;442 Rae Bareli Place;;Nordrhein-Westfalen;148;24321;886636413768;[B@4b2bac3f;25-09-2014
153;782 Mosul Street;;Massachusetts;94;25545;885899703621;[B@4e08711f;25-09-2014
160;1367 Yantai Manor;;Ondo & Ekiti;381;21294;889538496300;[B@bcec361;25-09-2014
166;1740 Le Mans Loop;;Pays de la Loire;297;22853;168476538960;[B@26794848;25-09-2014
178;1848 Salala Boulevard;;Miranda;373;25220;48265851133;[B@302552ec;25-09-2014
184;1410 Benin City Parkway;;Risaralda;405;29747;104150372603;[B@3d285d7e;25-09-2014
208;1215 Pyongyang Parkway;;Usak;557;25238;646237101779;[B@40005471;25-09-2014
216;660 Jedda Boulevard;;Washington;65;25053;168758068397;[B@2cd76f31;25-09-2014
218;226 Brest Manor;;California;508;2299;785881412500;[B@367ffa75;25-09-2014
220;1201 Qomsheh Manor;;Gois;28;21464;873492228462;[B@49438269;25-09-2014
221;866 Shivapuri Manor;;Uttar Pradesh;448;22474;778502731092;[B@ba2f4ec;25-09-2014
223;1244 Allappuzha (Alleppey) Place;;Buenos Aires;567;20657;991802825778;[B@1c1bbc4e;25-09-2014
225;1926 Gingoog Street;;Sisilia;511;22824;469738825391;[B@55fe41ea;25-09-2014
243;47 Syktyvkar Lane;;West Java;118;22236;63937119031;[B@fbd1f6;25-09-2014
246;1246 Boksburg Parkway;;Hebei;422;28349;890283544295;[B@1ce24091;25-09-2014
248;582 Papeete Loop;;Central Visayas;294;27722;569868543137;[B@5dda768f;25-09-2014
260;127 Iwakuni Boulevard;;Central Luzon;192;20777;987442542471;[B@7a8c8dcf;25-09-2014
270;682 Halisahar Place;;Severn Morava;378;20536;475553436330;[B@24269709;25-09-2014
278;144 South Hill Loop;;Guanajuato;445;2012;45387294817;[B@2aceadd4;25-09-2014
281;1944 Bamenda Way;;Michigan;573;24645;75975221996;[B@24aed80c;25-09-2014
291;1155 Liaocheng Place;;Oyo & Osun;152;22650;558236142492;[B@3a52dba3;25-09-2014
322;1359 Zhoushan Parkway;;Streymoyar;545;29763;46568045367;[B@2a5c8d3f;25-09-2014
323;1769 Iwaki Lane;;Kujawsko-Pomorskie;97;25787;556100547674;[B@752325ad;25-09-2014
325;1892 Nabereznyje Telny Lane;;Tutuila;516;28396;478229987054;[B@279fedbd;25-09-2014
336;430 Kumbakonam Drive;;Santa F;457;28814;105470691550;[B@b3ca52e;25-09-2014
340;507 Smolensk Loop;;Sousse;492;22971;80303246192;[B@45c7e403;25-09-2014
352;1673 Tangail Drive;;Daugavpils;137;26857;627924259271;[B@2925bf5b;25-09-2014
372;230 Urawa Drive;;Andhra Pradesh;8;2738;166898395731;[B@710f4dc7;25-09-2014
379;1133 Rizhao Avenue;;Pernambuco;572;2800;600264533987;[B@1ff4931d;25-09-2014
380;1519 Santiago de los Caballeros Loop;;East Kasai;348;22025;409315295763;[B@65e98b1c;25-09-2014
381;1618 Olomouc Manor;;Kurgan;285;26385;96846695220;[B@61322f9d;25-09-2014
387;401 Sucre Boulevard;;New Hampshire;322;25007;486395999608;[B@6ad82709;25-09-2014
393;717 Changzhou Lane;;Southern Tagalog;104;21615;426255288071;[B@510f3d34;25-09-2014
395;1337 Mit Ghamr Avenue;;Nakhon Sawan;358;29810;175283210378;[B@7817fd62;25-09-2014
397;614 Pak Kret Street;;Addis Abeba;6;27796;47808359842;[B@8297b3a;25-09-2014
448;614 Denizli Parkway;;Rio Grande do Sul;486;29444;876491807547;[B@2362f559;25-09-2014
451;1704 Tambaram Manor;;West Bengali;554;2834;39463554936;[B@b2c9a9c;25-09-2014
454;956 Nam Dinh Manor;;Kerman;481;21872;474047727727;[B@4c178a76;25-09-2014
455;1947 Paarl Way;;Central Java;509;23636;834061016202;[B@fa4c865;25-09-2014
460;659 Gatineau Boulevard;;La Paz;153;28587;205524798287;[B@3bd82cf5;25-09-2014
464;76 Kermanshah Manor;;Esfahan;423;23343;762361821578;[B@544fa968;25-09-2014
467;1621 Tongliao Avenue;;Irkutsk;558;22173;209342540247;[B@247bddad;25-09-2014
481;1153 Allende Way;;Qubec;179;20336;856872225376;[B@d35dea7;25-09-2014
485;984 Novoterkassk Loop;;Gaziantep;180;28165;435118527255;[B@7770f470;25-09-2014
486;64 Korla Street;;Mwanza;347;25145;510383179153;[B@5e5d171f;25-09-2014
488;698 Jelets Boulevard;;Denizli;142;2596;975185523021;[B@24313fcc;25-09-2014
492;185 Mannheim Lane;;Stavropol;408;23661;589377568313;[B@7d20d0b;25-09-2014
496;775 ostka Drive;;al-Daqahliya;337;22358;171973024401;[B@77f1baf5;25-09-2014
498;319 Plock Parkway;;Istanbul;504;26101;854259976812;[B@41a2befb;25-09-2014
530;1003 Qinhuangdao Street;;West Java;419;25972;35533115997;[B@6c40365c;25-09-2014
539;1332 Gaziantep Lane;;Shandong;80;22813;383353187467;[B@7bedc48a;25-09-2014
549;454 Qinhuangdao Drive;;Tadla-Azilal;68;25866;786270036240;[B@131ef10;25-09-2014
557;1407 Pachuca de Soto Place;;Rio Grande do Sul;21;26284;380077794770;[B@55b0dcab;25-09-2014
565;1741 Hoshiarpur Boulevard;;al-Sharqiya;79;22372;855066328617;[B@38afe297;25-09-2014
589;1584 Ljubertsy Lane;;England;494;22954;285710089439;[B@2df3b89c;25-09-2014
595;1074 Sanaa Parkway;;Loja;311;22474;154124128457;[B@23348b5d;25-09-2014
605;1325 Fukuyama Street;;Heilongjiang;537;27107;288241215394;[B@70325e14;25-09-2014
