address_id;address;address2;district;city_id;postal_code;phone;location;last_update
5;1913 Hanoi Way;;Nagasaki;463;35200;28303384290;[B@2002fc1d;25-09-2014
25;262 A Corua (La Corua) Parkway;;Dhaka;525;34418;892775750063;[B@69453e37;25-09-2014
26;28 Charlotte Amalie Street;;Rabat-Sal-Zammour-Z;443;37551;161968374323;[B@6f4a47c7;25-09-2014
35;33 Gorontalo Way;;West Bengali;257;30348;745994947458;[B@ae13544;25-09-2014
39;391 Callao Drive;;Midi-Pyrnes;544;34021;440512153169;[B@3d34d211;25-09-2014
40;334 Munger (Monghyr) Lane;;Markazi;31;38145;481183273622;[B@7dc0f706;25-09-2014
42;269 Cam Ranh Parkway;;Chisinau;115;34689;489783829737;[B@4009e306;25-09-2014
43;306 Antofagasta Place;;Esprito Santo;569;3989;378318851631;[B@43c1b556;25-09-2014
49;1718 Valencia Street;;Antofagasta;27;37359;675292816413;[B@587e5365;25-09-2014
57;17 Kabul Boulevard;;Chiba;355;38594;697760867968;[B@22fcf7ab;25-09-2014
60;1668 Saint Louis Place;;Tahiti;397;39072;347487831378;[B@2de23121;25-09-2014
85;320 Baiyin Parkway;;Mahajanga;319;37307;223664661973;[B@63475ace;25-09-2014
100;1308 Arecibo Way;;Georgia;41;30695;6171054059;[B@4988d8b8;25-09-2014
107;1177 Jelets Way;;Kwara & Kogi;220;3305;484292626944;[B@c0c2f8d;25-09-2014
113;682 Junan Way;;North West;273;30418;622255216127;[B@305b7c14;25-09-2014
148;1027 Songkhla Manor;;Minsk;340;30861;563660187896;[B@6913c1fb;25-09-2014
149;999 Sanaa Loop;;Gauteng;491;3439;918032330119;[B@66d18979;25-09-2014
157;456 Escobar Way;;Jakarta Raya;232;36061;719202533520;[B@bccb269;25-09-2014
168;842 Salzburg Lane;;Adana;529;3313;697151428760;[B@609cd4d8;25-09-2014
183;1089 Iwatsuki Avenue;;Kirov;270;35109;866092335135;[B@17f7cd29;25-09-2014
191;140 Chiayi Parkway;;Sumy;506;38982;855863906434;[B@7d8704ef;25-09-2014
198;345 Oshawa Boulevard;;Tokyo-to;204;32114;104491201771;[B@13b6aecc;25-09-2014
200;1074 Binzhou Manor;;Baden-Wrttemberg;325;36490;331132568928;[B@158a8276;25-09-2014
206;642 Nador Drive;;Maharashtra;77;3924;369050085652;[B@3c3d9b6b;25-09-2014
236;885 Yingkou Manor;;Kaduna;596;31390;588964509072;[B@79d8407f;25-09-2014
241;647 A Corua (La Corua) Street;;Chollanam;357;36971;792557457753;[B@5fbe4146;25-09-2014
247;1483 Pathankot Street;;Tucumn;454;37288;686015532180;[B@1e66f1f5;25-09-2014
253;1760 Oshawa Manor;;Tianjin;535;38140;56257502250;[B@4e50c791;25-09-2014
255;1966 Tonghae Street;;Anhalt Sachsen;198;36481;567359279425;[B@7530ad9c;25-09-2014
256;1497 Yuzhou Drive;;England;312;3433;246810237916;[B@58a9760d;25-09-2014
258;752 Ondo Loop;;Miyazaki;338;32474;134673576619;[B@71e9ddb4;25-09-2014
266;862 Xintai Lane;;Cagayan Valley;548;30065;265153400632;[B@394df057;25-09-2014
285;1006 Santa Brbara dOeste Manor;;Ondo & Ekiti;389;36229;85059738746;[B@4961f6af;25-09-2014
286;1308 Sumy Loop;;Fujian;175;30657;583021225407;[B@5aebe890;25-09-2014
293;86 Higashiosaka Lane;;Guanajuato;563;33768;957128697225;[B@65d09a04;25-09-2014
299;32 Pudukkottai Lane;;Ohio;140;38834;967274728547;[B@33c911a1;25-09-2014
332;663 Baha Blanca Parkway;;Adana;5;33463;834418779292;[B@75db5df9;25-09-2014
343;1443 Mardan Street;;Western Cape;392;31483;231383037471;[B@707194ba;25-09-2014
348;785 Vaduz Street;;Baja California;335;36170;895616862749;[B@1190200a;25-09-2014
357;1641 Changhwa Place;;Nord-Ouest;52;37636;256546485220;[B@6a2f6f80;25-09-2014
359;519 Nyeri Manor;;So Paulo;461;37650;764680915323;[B@45b4c3a9;25-09-2014
371;1912 Emeishan Drive;;Balikesir;50;33050;99883471275;[B@399c4be1;25-09-2014
386;1368 Maracabo Boulevard;;;493;32716;934352415130;[B@291caca8;25-09-2014
391;1793 Meixian Place;;Hmelnytskyi;258;33535;619966287415;[B@385e9564;25-09-2014
394;753 Ilorin Avenue;;Sichuan;157;3656;464511145118;[B@5b94b04d;25-09-2014
404;734 Bchar Place;;Punjab;375;30586;280578750435;[B@8c3b9d;25-09-2014
413;692 Amroha Drive;;Northern;230;35575;359478883004;[B@4c39bec8;25-09-2014
420;992 Klerksdorp Loop;;Utrecht;23;33711;855290087237;[B@f79e;25-09-2014
433;1823 Hoshiarpur Lane;;Komi;510;33191;307133768620;[B@7ee8290b;25-09-2014
435;740 Udaipur Lane;;Nizni Novgorod;150;33505;497288595103;[B@1f59a598;25-09-2014
445;495 Bhimavaram Lane;;Maharashtra;144;3;82088937724;[B@1e178745;25-09-2014
473;1257 Guadalajara Street;;Karnataka;78;33599;195337700615;[B@192c3f1e;25-09-2014
509;786 Matsue Way;;Illinois;245;37469;111177206479;[B@26b3fd41;25-09-2014
516;1574 Goinia Boulevard;;Heilongjiang;502;39529;59634255214;[B@7494f96a;25-09-2014
517;548 Uruapan Street;;Ontario;312;35653;879347453467;[B@561b6512;25-09-2014
520;1778 Gijn Manor;;Hubei;594;35156;288910576761;[B@2e377400;25-09-2014
522;1768 Udine Loop;;Battambang;60;32347;448876499197;[B@1757cd72;25-09-2014
532;1427 Tabuk Place;;Florida;101;31342;214756839122;[B@445b295b;25-09-2014
533;556 Asuncin Way;;Mogiljov;339;35364;338244023543;[B@49e5f737;25-09-2014
534;486 Ondo Parkway;;Benguela;67;35202;105882218332;[B@5c671d7f;25-09-2014
545;163 Augusta-Richmond County Loop;;Carabobo;561;33030;754579047924;[B@757277dc;25-09-2014
556;346 Cam Ranh Avenue;;Zhejiang;599;39976;978430786151;[B@687e99d8;25-09-2014
571;1746 Faaa Way;;Huanuco;214;32515;863080561151;[B@e4487af;25-09-2014
573;1407 Surakarta Manor;;Moskova;466;33224;324346485054;[B@6aaceffd;25-09-2014
576;1351 Sousse Lane;;Coahuila de Zaragoza;341;37815;203804046132;[B@c86b9e3;25-09-2014
580;923 Tangail Boulevard;;Tokyo-to;10;33384;315528269898;[B@10aa41f2;25-09-2014
582;1568 Celaya Parkway;;Kaohsiung;168;34750;278669994384;[B@3af9c5b7;25-09-2014
596;1759 Niznekamsk Avenue;;al-Manama;14;39414;864392582257;[B@37271612;25-09-2014
599;1895 Zhezqazghan Drive;;California;177;36693;137809746111;[B@ed7f8b4;25-09-2014
601;844 Bucuresti Place;;Liaoning;242;36603;935952366111;[B@4c309d4d;25-09-2014
